ONEWEB-0116             
1 48046U 21025E   25261.85820309  .00000030  00000+0  47848-4 0  9990
2 48046  87.9045  14.1087 0001663  96.5688 263.5630 13.13471073218035
ONEWEB-0150             
1 48047U 21025F   25261.83450364  .00000274  00000+0  71410-3 0  9990
2 48047  87.9044  14.1083 0001963  98.4094 261.7258 13.13471288217927
ONEWEB-0107             
1 48048U 21025G   25261.83620091  .00000275  00000+0  71710-3 0  9991
2 48048  87.9041  14.1056 0001934 108.9595 251.1744 13.13471094217902
ONEWEB-0101             
1 48049U 21025H   25261.87512203 -.00000260  00000+0 -74775-3 0  9991
2 48049  87.9036  14.1373 0001700 104.6624 255.4694 13.13471463217884
ONEWEB-0113             
1 48050U 21025J   25261.84830399  .00000227  00000+0  58098-3 0  9990
2 48050  87.9042  14.0820 0001794  91.5426 268.5909 13.13977369217976
ONEWEB-0112             
1 48051U 21025K   25261.84129245  .00000307  00000+0  80485-3 0  9996
2 48051  87.9043  14.1015 0001853  99.0126 261.1213 13.13470028217978
ONEWEB-0156             
1 48052U 21025L   25261.84975126  .00000279  00000+0  72989-3 0  9992
2 48052  87.9043  14.1119 0001884 101.6457 258.4884 13.13469923217958
ONEWEB-0161             
1 48053U 21025M   25261.74817963  .00000044  00000+0  85222-4 0  9991
2 48053  87.9042  14.1515 0001937 103.9086 256.2259 13.13471986217875
